GLOBALSTAR M045 [-]     
1 25676U 99019A   23223.01813597 -.00000048  00000+0  40460-3 0  9999
2 25676  51.9974  72.4130 0000817  13.1503 152.7244 12.27015133110629
GLOBALSTAR M019 [-]     
1 25677U 99019B   23224.11821016 -.00000055  00000+0  36879-3 0  9994
2 25677  51.9867 152.1644 0001506  28.4506 344.5166 12.13841696103357
GLOBALSTAR M044 [-]     
1 25678U 99019C   23223.72551059 -.00000124  00000+0 -56346-3 0  9997
2 25678  51.9990  20.1157 0006428 169.4568 204.0884 11.90225956 90878
GLOBALSTAR M042 [-]     
1 25679U 99019D   23223.13464980 -.00000074  00000+0  17369-3 0  9994
2 25679  52.0002 159.4014 0003419 353.8776  19.3267 12.22046104102676
GLOBALSTAR M025 [-]     
1 25770U 99031A   23222.45811363 -.00000045  00000+0  68808-3 0  9997
2 25770  51.9809 286.9527 0001335 100.9910 272.4480 11.22543735 63375
GLOBALSTAR M049 [-]     
1 25771U 99031B   23222.44466258  .00000045  00000+0  38269-2 0  9992
2 25771  51.9860 287.7353 0002208 310.1033  49.9570 11.12094753 42138
GLOBALSTAR M047 [-]     
1 25772U 99031C   23223.06230296 -.00000062  00000+0  19994-3 0  9998
2 25772  51.9874 347.8960 0016545 179.6105 180.4716 11.31914278 69319
GLOBALSTAR M052 [-]     
1 25773U 99031D   23222.25701396 -.00000030  00000+0  12153-2 0  9997
2 25773  51.9876  46.3448 0003031 116.1425  54.9248 11.15045365 60827
